COSMOS 2058             
1 20465U 90010A   26065.40386266  .00005232  00000+0  30894-3 0  9999
2 20465  82.4670  50.6649 0009634 354.4858   5.6264 15.11285256941749
SL-14 R/B               
1 20466U 90010B   26065.51690638  .00000553  00000+0  64085-4 0  9994
2 20466  82.4989 270.3699 0018729 313.4741  46.4916 14.83565721928018
HST                     
1 20580U 90037B   26065.09294664  .00008390  00000+0  27790-3 0  9990
2 20580  28.4707  64.5335 0001795  90.2676 269.8125 15.29414630772760
SL-16 R/B               
1 20625U 90046B   26065.65744279 -.00000235  00000+0 -96457-4 0  9993
2 20625  70.9993 304.2832 0016204 303.6768  56.2809 14.15013556847967
COSMOS 2084             
1 20663U 90055A   26065.13555292  .00003086  00000+0  22604-3 0  9990
2 20663  62.7926 347.6992 0017659 189.0828 170.9956 15.05624406935787
SL-8 R/B                
1 20775U 90078B   26065.48448170  .00016800  00000+0  49450-3 0  9999
2 20775  82.8999 254.1941 0362945  24.7710 337.0453 14.88931597808820
SL-8 R/B                
1 21088U 91006B   26065.56358377  .00000084  00000+0  68620-4 0  9995
2 21088  82.9466 172.3698 0023261  46.8205 324.6837 13.77493784763643
OKEAN-3                 
1 21397U 91039A   26065.62019390  .00004415  00000+0  31051-3 0  9999
2 21397  82.5192 339.8166 0014114 349.6073  10.4860 15.04777037864570
COSMOS 2151             
1 21422U 91042A   26065.54825692  .00002499  00000+0  19804-3 0  9995
2 21422  82.4929  86.7072 0014026  73.1241 287.1520 15.00091439862720
SL-14 R/B               
1 21423U 91042B   26065.44897333  .00000687  00000+0  83987-4 0  9997
2 21423  82.4916 223.2212 0015654 250.1694 109.7833 14.81825638852592
